*******************************************************************************
Ephemeris / WWW_USER Mon Jul 15 19:20:23 2024 Pasadena, USA      / Horizons    
*******************************************************************************
Target body name: (2019 AS11)                     {source: JPL#3}
Center body name: Earth (399)                     {source: DE441}
Center-site name: Gemini South Obs., Cerro Pachon
*******************************************************************************
Start time      : A.D. 2018-Dec-21 23:53:00.0000 UT      
Stop  time      : A.D. 2018-Dec-22 09:29:00.0000 UT      
Step-size       : 1 minutes
*******************************************************************************
Target pole/equ : undefined
Target radii    : undefined                                                    
Center geodetic : 289.2634, -30.2406227, 2.71233  {E-lon(deg),Lat(deg),Alt(km)}
Center cylindric: 289.2634,5517.21435,-3194.81213 {E-lon(deg),Dxy(km),Dz(km)}
Center pole/equ : ITRF93                          {East-longitude positive}
Center radii    : 6378.137, 6378.137, 6356.752 km {Equator_a, b, pole_c}       
Target primary  : Sun
Vis. interferer : MOON (R_eq= 1737.400) km        {source: DE441}
Rel. light bend : Sun                             {source: DE441}
Rel. lght bnd GM: 1.3271E+11 km^3/s^2                                          
Small-body perts: Yes                             {source: SB441-N16}
Atmos refraction: NO (AIRLESS)
RA format       : HMS
Time format     : CAL 
Calendar mode   : Mixed Julian/Gregorian
RTS-only print  : NO       
EOP file        : eop.240715.p241008                                           
EOP coverage    : DATA-BASED 1962-JAN-20 TO 2024-JUL-15. PREDICTS-> 2024-OCT-07
Units conversion: 1 au= 149597870.700 km, c= 299792.458 km/s, 1 day= 86400.0 s 
Table cut-offs 1: Elevation (-90.0deg=NO ),Airmass (>38.000=NO), Daylight (YES)
Table cut-offs 2: Solar elongation (  0.0,180.0=NO ),Local Hour Angle( 0.0=NO )
Table cut-offs 3: RA/DEC angular rate (     0.0=NO )                           
*******************************************************************************
Initial IAU76/J2000 heliocentric ecliptic osculating elements (au, days, deg.):
  EPOCH=  2458497.5 ! 2019-Jan-14.00 (TDB)         Residual RMS= .087899       
   EC= .1148313279028816   QR= .9946661968961306   TP= 2458526.093433633       
   OM= 299.8828960483019   W=  203.050931799211    IN= 7.281527766683049       
  Equivalent ICRF heliocentric cartesian coordinates (au, au/d):
   X=-3.982431103506237E-01  Y= 8.438985356712057E-01  Z= 3.820551439764541E-01
  VX=-1.601846206933958E-02 VY=-6.309373484980013E-03 VZ=-5.215303828559489E-03
Asteroid physical parameters (km, seconds, rotational period in hours):        
   GM= n.a.                RAD= n.a.               ROTPER= n.a.                
   H= 26.8                 G= .150                 B-V= n.a.                   
                           ALBEDO= n.a.            STYP= n.a.                  
*******************************************************************************
 Date__(UT)__HR:MN     R.A._________(ICRF)_________DEC
******************************************************
$$SOE
 2018-Dec-22 08:05 Am  08 05 35.061692 +72 58 47.64481
 2018-Dec-22 08:06 Am  08 05 35.052240 +72 58 47.18502
 2018-Dec-22 08:07 Am  08 05 35.042920 +72 58 46.72359
 2018-Dec-22 08:08 Am  08 05 35.033733 +72 58 46.26053
 2018-Dec-22 08:09 Am  08 05 35.024681 +72 58 45.79583
 2018-Dec-22 08:10 Am  08 05 35.015765 +72 58 45.32950
 2018-Dec-22 08:11 Am  08 05 35.006988 +72 58 44.86154
 2018-Dec-22 08:12 Am  08 05 34.998351 +72 58 44.39196
 2018-Dec-22 08:13 Am  08 05 34.989855 +72 58 43.92075
 2018-Dec-22 08:14 Am  08 05 34.981503 +72 58 43.44792
 2018-Dec-22 08:15 Am  08 05 34.973295 +72 58 42.97347
 2018-Dec-22 08:16 Am  08 05 34.965234 +72 58 42.49741
 2018-Dec-22 08:17 Am  08 05 34.957321 +72 58 42.01974
 2018-Dec-22 08:18 Am  08 05 34.949558 +72 58 41.54045
 2018-Dec-22 08:19 Am  08 05 34.941946 +72 58 41.05955
 2018-Dec-22 08:20 Am  08 05 34.934487 +72 58 40.57706
 2018-Dec-22 08:21 Am  08 05 34.927183 +72 58 40.09296
 2018-Dec-22 08:22 Am  08 05 34.920035 +72 58 39.60726
 2018-Dec-22 08:23 Am  08 05 34.913044 +72 58 39.11996
 2018-Dec-22 08:24 Am  08 05 34.906214 +72 58 38.63107
 2018-Dec-22 08:25 Am  08 05 34.899544 +72 58 38.14059
 2018-Dec-22 08:26 Am  08 05 34.893037 +72 58 37.64853
 2018-Dec-22 08:27 Am  08 05 34.886695 +72 58 37.15487
 2018-Dec-22 08:28 Am  08 05 34.880518 +72 58 36.65964
 2018-Dec-22 08:29 Am  08 05 34.874509 +72 58 36.16283
 2018-Dec-22 08:30 Am  08 05 34.868669 +72 58 35.66445
 2018-Dec-22 08:31 Am  08 05 34.863000 +72 58 35.16449
 2018-Dec-22 08:32 Am  08 05 34.857503 +72 58 34.66296
 2018-Dec-22 08:33 Am  08 05 34.852179 +72 58 34.15987
 2018-Dec-22 08:34 Am  08 05 34.847032 +72 58 33.65522
 2018-Dec-22 08:35 Am  08 05 34.842061 +72 58 33.14901
 2018-Dec-22 08:36 Am  08 05 34.837269 +72 58 32.64124
 2018-Dec-22 08:37 Am  08 05 34.832657 +72 58 32.13192
 2018-Dec-22 08:38 Nm  08 05 34.828227 +72 58 31.62105
 2018-Dec-22 08:39 Nm  08 05 34.823980 +72 58 31.10863
 2018-Dec-22 08:40 Nm  08 05 34.819918 +72 58 30.59468
 2018-Dec-22 08:41 Nm  08 05 34.816043 +72 58 30.07918
 2018-Dec-22 08:42 Nm  08 05 34.812355 +72 58 29.56215
 2018-Dec-22 08:43 Nm  08 05 34.808857 +72 58 29.04358
 2018-Dec-22 08:44 Nm  08 05 34.805550 +72 58 28.52349
 2018-Dec-22 08:45 Nm  08 05 34.802436 +72 58 28.00187
 2018-Dec-22 08:46 Nm  08 05 34.799516 +72 58 27.47873
 2018-Dec-22 08:47 Nm  08 05 34.796791 +72 58 26.95407
 2018-Dec-22 08:48 Nm  08 05 34.794264 +72 58 26.42790
 2018-Dec-22 08:49 Nm  08 05 34.791936 +72 58 25.90022
 2018-Dec-22 08:50 Nm  08 05 34.789808 +72 58 25.37103
 2018-Dec-22 08:51 Nm  08 05 34.787881 +72 58 24.84034
 2018-Dec-22 08:52 Nm  08 05 34.786158 +72 58 24.30815
 2018-Dec-22 08:53 Nm  08 05 34.784640 +72 58 23.77446
 2018-Dec-22 08:54 Nm  08 05 34.783328 +72 58 23.23928
 2018-Dec-22 08:55 Nm  08 05 34.782224 +72 58 22.70262
 2018-Dec-22 08:56 Nm  08 05 34.781329 +72 58 22.16447
 2018-Dec-22 08:57 Nm  08 05 34.780646 +72 58 21.62484
 2018-Dec-22 08:58 Nm  08 05 34.780174 +72 58 21.08373
 2018-Dec-22 08:59 Nm  08 05 34.779916 +72 58 20.54115
 2018-Dec-22 09:00 Nm  08 05 34.779874 +72 58 19.99710
 2018-Dec-22 09:01 Nm  08 05 34.780049 +72 58 19.45159
 2018-Dec-22 09:02 Nm  08 05 34.780441 +72 58 18.90461
 2018-Dec-22 09:03 Nm  08 05 34.781054 +72 58 18.35618
 2018-Dec-22 09:04 Nm  08 05 34.781887 +72 58 17.80630
 2018-Dec-22 09:05 Nm  08 05 34.782943 +72 58 17.25497
 2018-Dec-22 09:06 Nm  08 05 34.784224 +72 58 16.70220
 2018-Dec-22 09:07 Nm  08 05 34.785730 +72 58 16.14798
 2018-Dec-22 09:08 Nm  08 05 34.787463 +72 58 15.59233
 2018-Dec-22 09:09 Nm  08 05 34.789424 +72 58 15.03525
 2018-Dec-22 09:10 Nm  08 05 34.791616 +72 58 14.47674
 2018-Dec-22 09:11 Cm  08 05 34.794038 +72 58 13.91680
 2018-Dec-22 09:12 Cm  08 05 34.796694 +72 58 13.35545
 2018-Dec-22 09:13 Cm  08 05 34.799583 +72 58 12.79268
 2018-Dec-22 09:14 Cm  08 05 34.802709 +72 58 12.22851
 2018-Dec-22 09:15 Cm  08 05 34.806071 +72 58 11.66293
 2018-Dec-22 09:16 Cm  08 05 34.809672 +72 58 11.09594
 2018-Dec-22 09:17 Cm  08 05 34.813512 +72 58 10.52756
 2018-Dec-22 09:18 Cm  08 05 34.817594 +72 58 09.95779
 2018-Dec-22 09:19 Cm  08 05 34.821919 +72 58 09.38662
 2018-Dec-22 09:20 Cm  08 05 34.826487 +72 58 08.81408
 2018-Dec-22 09:21 Cm  08 05 34.831302 +72 58 08.24015
 2018-Dec-22 09:22 Cm  08 05 34.836362 +72 58 07.66485
 2018-Dec-22 09:23 Cm  08 05 34.841672 +72 58 07.08818
 2018-Dec-22 09:24 Cm  08 05 34.847230 +72 58 06.51015
 2018-Dec-22 09:25 Cm  08 05 34.853040 +72 58 05.93075
 2018-Dec-22 09:26 Cm  08 05 34.859102 +72 58 05.35000
 2018-Dec-22 09:27 Cm  08 05 34.865418 +72 58 04.76789
 2018-Dec-22 09:28 Cm  08 05 34.871989 +72 58 04.18444
 2018-Dec-22 09:29 Cm  08 05 34.878816 +72 58 03.59965
